[{"OBJECT_NAME":"AAC-HSI-SAT3","OBJECT_ID":"2023-174DH","EPOCH":"2026-03-09T23:15:51.401952","MEAN_MOTION":15.15239914,"ECCENTRICITY":0.00104695,"INCLINATION":97.3525,"RA_OF_ASC_NODE":131.622,"ARG_OF_PERICENTER":2.3661,"MEAN_ANOMALY":357.7619,"EPHEMERIS_TYPE":0,"CLASSIFICATION_TYPE":"U","NORAD_CAT_ID":58848,"ELEMENT_SET_NO":999,"REV_AT_EPOCH":12887,"BSTAR":0.00020496498,"MEAN_MOTION_DOT":3.793e-5,"MEAN_MOTION_DDOT":0},{"OBJECT_NAME":"OBJECT B","OBJECT_ID":"2024-094B","EPOCH":"2026-03-09T23:16:02.635680","MEAN_MOTION":15.16281585,"ECCENTRICITY":0.00049641,"INCLINATION":97.3969,"RA_OF_ASC_NODE":142.4807,"ARG_OF_PERICENTER":78.7476,"MEAN_ANOMALY":281.4315,"EPHEMERIS_TYPE":0,"CLASSIFICATION_TYPE":"U","NORAD_CAT_ID":59806,"ELEMENT_SET_NO":999,"REV_AT_EPOCH":10012,"BSTAR":0.00045081306,"MEAN_MOTION_DOT":8.669e-5,"MEAN_MOTION_DDOT":0}]
